[{"OBJECT_NAME":"KUIPER-00059","OBJECT_ID":"2025-134V","EPOCH":"2026-03-09T17:04:14.081376","MEAN_MOTION":14.79930671,"ECCENTRICITY":9.053e-5,"INCLINATION":51.8998,"RA_OF_ASC_NODE":220.4892,"ARG_OF_PERICENTER":151.7188,"MEAN_ANOMALY":208.3824,"EPHEMERIS_TYPE":0,"CLASSIFICATION_TYPE":"U","NORAD_CAT_ID":64519,"ELEMENT_SET_NO":999,"REV_AT_EPOCH":4025,"BSTAR":0.00030289099,"MEAN_MOTION_DOT":2.088e-5,"MEAN_MOTION_DDOT":0},{"OBJECT_NAME":"SL-14 R\/B","OBJECT_ID":"1986-055B","EPOCH":"2026-03-09T16:18:40.903776","MEAN_MOTION":14.85642641,"ECCENTRICITY":0.00181921,"INCLINATION":82.5202,"RA_OF_ASC_NODE":126.6837,"ARG_OF_PERICENTER":336.5476,"MEAN_ANOMALY":145.9532,"EPHEMERIS_TYPE":0,"CLASSIFICATION_TYPE":"U","NORAD_CAT_ID":16882,"ELEMENT_SET_NO":999,"REV_AT_EPOCH":11936,"BSTAR":5.7455179e-5,"MEAN_MOTION_DOT":5.23e-6,"MEAN_MOTION_DDOT":0}]
